CIC_OEM_VERS = 2.0
CREATION_DATE = 2025-06-13T14:26:59.657103
ORIGINATOR = ISAE-SUPAERO


META_START
OBJECT_NAME = RED2
OBJECT_ID = RED2
CENTER_NAME = Earth
REF_FRAME = EME2000
TIME_SYSTEM = UTC
START_TIME = 2025-06-13T16:10:45.000
USEABLE_START_TIME = 2025-06-13T16:10:45.000
USEABLE_STOP_TIME = 2025-06-13T23:58:45.000
STOP_TIME = 2025-06-13T23:58:45.000
INTERPOLATION = lagrange
INTERPOLATION_DEGREE = 5
META_STOP


60839 58245.0 4631.4043 -17313.159 -8877.2032 -3.5119496 -0.27855968000000003 -1.6218327
60839 58365.0 4208.3607 -17340.376 -9068.617 -3.5383453 -0.17508513 -1.5682293999999999
60839 58485.0 3782.3048 -17355.183 -9253.537900000001 -3.5621546 -0.071705951 -1.5136187
60839 58605.0 3353.5468 -17357.59 -9431.845800000001 -3.5833827 0.031558929 -1.4580144000000002
60839 58725.0 2922.3961 -17347.614 -9603.422199999999 -3.6020327 0.13469077 -1.4014296
60839 58845.0 2489.1621 -17325.271 -9768.150099999999 -3.6181051 0.2376709 -1.3438761
60839 58965.0 2054.154 -17290.58 -9925.9141 -3.6315987 0.34048064 -1.2853651
60839 59085.0 1617.6817 -17243.563000000002 -10076.6 -3.6425094 0.44310115000000005 -1.2259066
60839 59205.0 1180.0553 -17184.244 -10220.094000000001 -3.6508314 0.5455133200000001 -1.1655100999999999
60839 59325.0 741.58604 -17112.649 -10356.285 -3.6565562000000003 0.64769767 -1.1041843
60839 59445.0 302.58614 -17028.806 -10485.062 -3.6596731 0.7496342300000001 -1.0419372
60839 59565.0 -136.63067 -16932.747 -10606.313 -3.6601691 0.85130242 -0.97877632
60839 59685.0 -575.74899 -16824.505 -10719.932 -3.6580288000000003 0.95268092 -0.91470857
60839 59805.0 -1014.4514 -16704.116 -10825.808 -3.6532343000000003 1.0537475 -0.84974043
60839 59925.0 -1452.4183 -16571.619 -10923.834 -3.6457655 1.1544792 -0.78387799
60839 60045.0 -1889.3273000000002 -16427.056 -11013.903 -3.6355995 1.2548515 -0.7171270200000001
60839 60165.0 -2324.8532999999998 -16270.470000000001 -11095.909 -3.6227113 1.3548389 -0.64949303
60839 60285.0 -2758.668 -16101.911 -11169.746000000001 -3.6070731 1.4544146 -0.5809814
60839 60405.0 -3190.4396 -15921.428 -11235.309000000001 -3.5886545 1.5535501 -0.51159737
60839 60525.0 -3619.8325 -15729.078 -11292.495 -3.5674227000000003 1.6522152 -0.44134618999999997
60839 60645.0 -4046.5071000000003 -15524.917 -11341.198 -3.5433422 1.7503778 -0.37023318
60839 60765.0 -4470.1192 -15309.008 -11381.316 -3.5163747 1.8480038 -0.29826385
60839 60885.0 -4890.3199 -15081.419 -11412.747 -3.4864793 1.945057 -0.22544395
60839 61005.0 -5306.7553 -14842.219000000001 -11435.389000000001 -3.4536122999999996 2.0414985 -0.15177962
60839 61125.0 -5719.0661 -14591.485 -11449.141 -3.4177272 2.1372869999999997 -0.077277481
60839 61245.0 -6126.8872 -14329.298 -11453.902 -3.3787747 2.2323782999999997 -0.0019447741
60839 61365.0 -6529.8473 -14055.744 -11449.575 -3.3367026 2.3267251 0.074210528
60839 61485.0 -6927.5688 -13770.916000000001 -11436.059000000001 -3.291456 2.4202767 0.15117957
60839 61605.0 -7319.6674 -13474.912 -11413.259 -3.2429768 2.5129789000000002 0.22895244
60839 61725.0 -7705.7515 -13167.837 -11381.079 -3.1912041 2.6047737000000004 0.30751805000000004
60839 61845.0 -8085.4221 -12849.805 -11339.424 -3.1360742 2.6955987 0.38686389000000004
60839 61965.0 -8458.2724 -12520.935 -11288.201000000001 -3.0775202 2.7853873 0.46697590000000005
60839 62085.0 -8823.8872 -12181.356 -11227.32 -3.0154725 2.8740677999999997 0.5478381900000001
60839 62205.0 -9181.8431 -11831.206 -11156.691 -2.9498584 2.9615635000000005 0.62943285
60839 62325.0 -9531.7076 -11470.632 -11076.227 -2.8806026 3.0477921 0.71173967
60839 62445.0 -9873.038900000001 -11099.79 -10985.846 -2.8076268 3.1326653 0.79473587
60839 62565.0 -10205.386 -10718.85 -10885.464 -2.7308499999999998 3.2160884000000003 0.87839581
60839 62685.0 -10528.288 -10327.991 -10775.005000000001 -2.6501888 3.2979599 0.9626906199999999
60839 62805.0 -10841.272 -9927.4062 -10654.394 -2.5655569999999996 3.3781708 1.0475879
60839 62925.0 -11143.859 -9517.301300000001 -10523.561 -2.4768665000000003 3.4566045 1.1330512000000001
60839 63045.0 -11435.554 -9097.8972 -10382.441 -2.384027 3.5331358 1.2190398
60839 63165.0 -11715.856 -8669.4301 -10230.973 -2.2869463000000003 3.6076306000000002 1.3055081
60839 63285.0 -11984.248 -8232.153 -10069.102 -2.1855309000000003 3.6799453 1.3924051
60839 63405.0 -12240.206 -7786.3366 -9896.7806 -2.0796862000000003 3.749926 1.4796738
60839 63525.0 -12483.192000000001 -7332.2707 -9713.9678 -1.9693172 3.8174082 1.5672509000000001
60839 63645.0 -12712.657000000001 -6870.2656 -9520.6308 -1.8543286 3.8822157 1.6550657000000002
60839 63765.0 -12928.042 -6400.6534 -9316.7457 -1.7346259 3.9441603 1.74304
60839 63885.0 -13128.775 -5923.7897 -9102.2983 -1.6101159 4.0030409 1.8310866000000001
60839 64005.0 -13314.274 -5440.054700000001 -8877.285800000001 -1.4807080000000001 4.0586428 1.9191092
60839 64125.0 -13483.946 -4949.8557 -8641.7173 -1.3463145 4.110737 2.0070012
60839 64245.0 -13637.187 -4453.6279 -8395.6155 -1.2068524 4.159079800000001 2.0946446
60839 64365.0 -13773.384 -3951.8369 -8139.0178 -1.0622446 4.203411600000001 2.1819094
60839 64485.0 -13891.917 -3444.9805 -7871.978099999999 -0.91242148 4.2434568 2.2686526
60839 64605.0 -13992.155 -2933.5904 -7594.5683 -0.7573224199999999 4.278923 2.3547166
60839 64725.0 -14073.461000000001 -2418.2345 -7306.880099999999 -0.59689815 4.3095005 2.4399287
60839 64845.0 -14135.196 -1899.5189 -7009.027 -0.43111284 4.3348621000000005 2.5240994999999997
60839 64965.0 -14176.713 -1378.0901000000001 -6701.1461 -0.25994670000000003 4.3546626 2.607022
60839 65085.0 -14197.368 -854.63684 -6383.4007 -0.08339876700000001 4.3685393 2.6884703
60839 65205.0 -14196.514000000001 -329.89277000000004 -6055.9821 0.098509856 4.376111799999999 2.7681982
60839 65325.0 -14173.513 195.36194 -5719.1125999999995 0.28573255999999997 4.3769825 2.8459388
60839 65445.0 -14127.729000000001 720.2984200000001 -5373.0478 0.47819339000000005 4.370737600000001 2.9214024
60839 65565.0 -14058.541000000001 1244.0372 -5018.0795 0.67578282 4.3569486 2.9942765
60839 65685.0 -13965.342 1765.6467 -4654.5384 0.8783533 4.3351733999999995 3.0642246
60839 65805.0 -13847.545 2284.1413 -4282.7971 1.0857144 4.3049593 3.1308854999999998
60839 65925.0 -13704.588 2798.4809 -3903.2727999999997 1.2976277 4.2658453 3.1938733000000004
60839 66045.0 -13535.943000000001 3307.5696000000003 -3516.4308 1.5138015 4.2173666 3.2527777
60839 66165.0 -13341.119 3810.2557 -3122.7869 1.7338852 4.1590582000000005 3.3071639
60839 66285.0 -13119.671 4305.332 -2722.9105 1.957464 4.0904611 3.3565743
60839 66405.0 -12871.207 4791.5369 -2317.4272 2.1840535 4.011128 3.4005299
60839 66525.0 -12595.4 5267.5561 -1907.0213999999999 2.413094 3.9206315 3.4385331999999997
60839 66645.0 -12291.992 5732.0258 -1492.4378000000002 2.6439470000000003 3.8185718000000004 3.4700711
60839 66765.0 -11960.809000000001 6183.5363 -1074.4839 2.8758899 3.7045866000000003 3.4946196
60839 66885.0 -11601.767 6620.637 -654.0299200000001 3.1081143000000004 3.5783619 3.5116488
60839 67005.0 -11214.886 7041.8432 -232.01009 3.3397238000000002 3.4396427 3.52063
60839 67125.0 -10800.297 7445.644 190.57851000000002 3.5697343000000004 3.2882461 3.5210427
60839 67245.0 -10358.257 7830.5111 612.67726 3.7970762000000002 3.1240733 3.512384
60839 67365.0 -9889.151800000001 8194.9103 1033.1687 4.0205991 2.9471228000000003 3.4941782
60839 67485.0 -9393.5144 8537.3136 1450.8806000000002 4.239078900000001 2.7575026 3.4659876
60839 67605.0 -8872.026 8856.2132 1864.5908000000002 4.451228100000001 2.5554427 3.4274244
60839 67725.0 -8325.5263 9150.1366 2273.0344 4.6557092 2.3413049999999997 3.3781625
60839 67845.0 -7755.017400000001 9417.663199999999 2674.9116000000004 4.8511512 2.1155923 3.3179502000000003
60839 67965.0 -7161.667 9657.4415 3068.8976000000002 5.0361693999999995 1.8789542 3.2466214
60839 68085.0 -6546.8088 9868.207 3453.6532 5.2093874 1.6321899000000002 3.1641072
60839 68205.0 -5911.9398 10048.800000000001 3827.8372999999997 5.369462 1.3762475 3.0704449
60839 68325.0 -5258.715099999999 10198.183 4190.12 5.5151092 1.1122188000000002 2.9657866
60839 68445.0 -4588.9388 10315.458 4539.196900000001 5.6451314 0.84132988 2.8504034000000003
60839 68565.0 -3904.5522 10399.881 4873.8033 5.7584438 0.56492705 2.7246881
60839 68685.0 -3207.6187999999997 10450.877 5192.7291 5.8540995 0.28445855000000003 2.5891544
60839 68805.0 -2500.3062000000004 10468.050000000001 5494.8327 5.9313123999999995 0.0014523455 2.4444318
60839 68925.0 -1784.866 10451.188 5779.0545999999995 5.989476 -0.2825093 2.2912579
60839 69045.0 -1063.6107 10400.274 6044.4298 6.028178 -0.56581752 2.1304670999999997
60839 69165.0 -338.89041 10315.482 6290.098599999999 6.0472094 -0.84686569 1.9629763
60839 69285.0 386.93232 10197.179 6515.3154 6.0465679 -1.1240785000000002 1.7897681
60839 69405.0 1111.5068 10045.917 6719.455400000001 6.0264560000000005 -1.3959398 1.6118727
60839 69525.0 1832.5186 9862.4252 6902.0196 5.9872722000000005 -1.6610181 1.4303481
60839 69645.0 2547.7122999999997 9647.5975 7062.6365000000005 5.9295990000000005 -1.9179892 1.2462613
60839 69765.0 3254.9125 9402.4802 7201.0622 5.854184 -2.165655 1.0606688
60839 69885.0 3952.0424 9128.255000000001 7317.178 5.7619203 -2.4029573 0.87459942
60839 70005.0 4637.1399 8826.221599999999 7410.986400000001 5.653821700000001 -2.6289878 0.6890385099999999
60839 70125.0 5308.3705 8497.779199999999 7482.6048 5.5309991 -2.8429929 0.5049144999999999
60839 70245.0 5964.0379 8144.4084 7532.2579000000005 5.3946345 -3.0443744 0.32308817
60839 70365.0 6602.5903 7767.6523 7560.2694 5.2459568 -3.2326867000000004 0.14434452
60839 70485.0 7222.6251 7369.098599999999 7567.0522 5.0862186000000005 -3.4076297 -0.03061271
60839 70605.0 7822.8905 6950.362700000001 7553.0987000000005 4.916675000000001 -3.5690397 -0.20116398000000002
60839 70725.0 8402.2845 6513.072 7518.9706 4.7385651 -3.7168784 -0.36677456999999997
60839 70845.0 8959.8518 6058.851900000001 7465.2886 4.5530957 -3.8512197 -0.5269933099999999
